#dP2022  5 21  0  0  0.00000000      96 __u+U ITR00 FIT  IAC
## 2210 518400.00000000   900.00000000 59720 0.0000000000000
+  117   C06C07C08C09C10C11C12C13C14C16C19C20C21C22C23C24C25
+        C26C27C28C29C30C32C33C34C35C36C37C38C39C40C41C42C43
+        C44C45C46E01E02E03E04E05E07E08E09E10E11E12E13E14E15
+        E18E19E21E24E25E26E27E30E31E33E34E36G01G02G03G04G05
+        G06G07G08G09G10G11G12G13G14G15G16G17G18G19G20G21G22
+        G23G24G25G26G27G28G29G30G31G32J02J03R01R02R03R04R05
+        R07R08R09R11R12R13R14R15R17R18R19R20R21R22R24  0  0
++         8  7  7  8  7  6  6  8  6  8  7  8  7  7  6  7  7
++         5  6  6  8  6  7  6  6  6  7  7  8  9  8  6  6  6
++         6  7  8  7  6  6  7  7  7  6  6  6  6  6  5  7  7
++         6  7  7  6  6  7  6  7  7  5  8  6  6  6  8  7  6
++         5  7  6  7  7  6  6  6  6  6  6  7  0  7  6  6  6
++         7  6  6  6  6  7  5  7  6  6  7  7  8  7  7  7  7
++         6  6  6  6  8  7  7  6  7  7  7  8  5  6  6  0  0
%c M  cc GPS ccc cccc cccc cccc cccc ccccc ccccc ccccc ccccc
%c cc cc ccc ccc cccc cccc cccc cccc ccccc ccccc ccccc ccccc
%f  0.0000000  0.000000000  0.00000000000  0.000000000000000
%f  0.0000000  0.000000000  0.00000000000  0.000000000000000
%i    0    0    0    0      0      0      0      0         0
%i    0    0    0    0      0      0      0      0         0
/* INFORMATION & ANALYSIS CENTER (IAC)      ULTRA-RAPID DATA
/* S/V CLOCKS ARE ALIGNED TO GNSS TIME                      
/* G:C1WC2W R:C1PC2P E:C1XC5X C:C2IC6I J:C1CC2S             
/* PCV:IGS14_2196 OL/AL:FES2004  NONE     YN ORB:CoN CLK:CoN
*  2022 05 21 16  0  0.00000000
PC06   -556.831461  33518.117219  25731.840970     29.380691
PC07 -14774.319106  26852.099603 -29019.186868   -195.618639
PC08 -15317.234108  38898.973574   4904.710423    324.245250
PC09   5274.322369  37262.735978  19873.151279   -808.552058
PC10  -5951.137368  27350.174077 -31370.402250    131.110119
PC11  -6751.285110  15660.596056 -22025.350994    366.018815
PC12 -18232.404651  -1713.706665 -21031.826884   -612.586336
PC13  -9320.674479  39253.891851  11882.616187    -26.393837
PC14 -17144.077867  13904.961650  17135.542644    480.203111
PC16  -3000.600074  31436.342033  28245.210782    133.436859
PC19   6823.167916 -15901.464886 -21857.794528    867.715149
PC20  23373.568731 -10379.939670 -11106.051926   -924.273882
PC21 -26958.055644  -1783.216529  -7025.037753   -332.955277
PC22 -14388.111186 -12476.082973 -20402.760595   -968.754973
PC23   5752.802803  20017.233465 -18567.363672   -930.407571
PC24 -17922.516456  16533.364337  13544.394408   -967.397196
PC25  -7416.200549  26512.305824  -4508.803999   -733.403998
PC26 -16868.830855   -806.917727  22200.408143    734.683326
PC27  20690.197939  10361.693406  15585.074089    726.688678
PC28  15986.411772  22867.827389   -468.222424     69.364993
PC29  -2297.903899 -22080.531483  16895.059737    557.694661
PC30  13757.760317  -8160.711200  22855.847331    498.814820
PC32  26927.475968   1653.057249   7125.710904   -963.932979
PC33  -6856.693551  15984.133853  21838.163361   -966.156371
PC34 -13071.118106   9189.062264 -22894.449162   -398.534895
PC35 -16209.861321 -22644.453465   1452.753666    284.327230
PC36   8385.547463 -26313.786933   4032.718004   -964.732937
PC37  16448.844170   2436.757562 -22396.686020   -910.067075
PC38 -18832.191191  37532.018156  -2862.682589    233.729952
PC39  -6776.245512  27364.124056  31443.782611     34.981532
PC40 -21265.771384  20392.976771 -30251.952544    270.912539
PC41  13901.301292  12703.755765  20647.972437   -966.361912
PC42 -24005.131451   9952.735169  10252.817358   -970.009192
PC43   1530.069129  21858.482609 -17308.053819   -922.799409
PC44 -21134.033962  -9683.864619 -15428.730833    666.855273
PC45  -5883.585724 -19773.124192  18803.947007    762.871254
PC46  17504.279733 -17890.486491 -12372.679414   -336.590264
PE01  -7257.123245 -15206.823422  24336.082221   -480.871254
PE02   7442.320277  15086.637223 -24356.864981    300.603918
PE03  18756.914857  18430.437417  13581.133676   -560.585162
PE04 -27983.512239  -8658.420970   4282.380217  -1032.810858
PE05  -1678.985115  17545.091727  23789.908235   -179.537759
PE07  20821.613655  -6466.955620 -20003.106279   -670.723615
PE08  28005.968830   8418.250592  -4526.294240   -532.950089
PE09 -20693.494760   6505.144991  20157.584067   -526.030933
PE10 -15799.831505   2951.609970 -24868.556163   -514.473265
PE11 -12808.575525  14607.384585 -22353.403797   3601.798783
PE12 -16263.440208  -8537.190665 -23213.555318   4602.600810
PE13  12983.192564 -13880.257786  22686.558016    428.816244
PE14  14493.993505  -7362.591874  16987.562438  -1831.047450
PE15  16198.755841   8713.046580  23193.380195    744.290872
PE18 -20999.426767   8904.565392 -23062.510545  -1422.585791
PE19 -16660.046867 -18916.489939 -15503.843557  -5042.764536
PE21  11140.948609 -22101.907300  16233.677718   -735.501665
PE24 -24757.821407  15959.271953   2790.262337   -627.246470
PE25 -11391.046748  22117.298695 -16031.801446   -574.742388
PE26   1691.735658 -28466.424424   7927.840142  -1170.669806
PE27  24342.530423 -16765.719342  -1669.451326   -303.920816
PE30  22682.309889   -623.930500 -19024.448918   -528.538997
PE31 -23101.118698   1600.806152  18442.356798   -496.987838
PE33  -9848.725839 -26043.383912 -10029.631992   -456.417905
PE34   9986.702515  25929.526722  10188.949871   -518.182135
PE36  -2170.812881  28165.748403  -8866.021383   -376.841748
PG01  13040.999089 -11597.554207  19607.807771    358.113107
PG02 -13869.821641 -11842.009355 -18604.222900   -653.192451
PG03  23153.423038 -12850.679403    808.776944   -252.196293
PG04  18596.518516  -3781.091065 -18606.787840   -165.105023
PG05 -22217.208469   2026.624038 -14692.483436    -82.658352
PG06  -6027.359772 -24116.356718  -9181.088795    312.071579
PG07   5803.808618 -24215.835214  -8082.065465    322.187311
PG08  23554.985991   3185.745735  12171.401462    -68.921451
PG09   9010.380598 -12573.502335 -21655.382440   -334.993507
PG10  -1251.462098  16902.927643  20519.018573   -423.182628
PG11 -12813.368889 -12928.183019 -19351.032038    -22.309820
PG12 -24584.844324   8701.161423   4414.164669   -218.917114
PG13 -22749.009608 -12672.217658   5527.209547    315.609159
PG14   3154.407855 -17524.526613  19677.167033   -109.223891
PG15 -23627.189363    -57.131614  12022.973426    -59.490237
PG16  19817.955935   4131.770391 -17701.337688   -502.765681
PG17  -7678.331611 -18987.234556  17312.164614    615.371700
PG18      0.000000      0.000000      0.000000 999999.999999
PG19 -14757.032279 -19423.389072  10501.408916    160.265635
PG20 -15479.350958  -6561.167398 -20507.423822    514.452059
PG21  15563.189155   -124.536391  22179.983384    161.166374
PG22  16577.409162  19023.663894   8992.448189    262.783035
PG23 -12265.438831  18905.930825  13964.543403    -23.313007
PG24 -14605.364526   7445.485659  20528.382064    236.953686
PG25 -17963.367825  17563.769389  -8466.734731    327.537211
PG26  11018.665704  11505.474113 -21361.618803    207.143363
PG27  23485.376464  12828.596763    728.728844    206.253737
PG28  -5813.606430 -14149.082361  22229.558213    353.862887
PG29  -9894.822548  11132.524145 -22047.693352   -515.977474
PG30   -307.649412 -26407.867418    889.714736   -528.723272
PG31   7737.246890  22434.348066 -11566.816622   -178.543335
PG32  11089.516875  18730.561620  15493.562882   -132.287076
PJ02 -35165.366872  23073.814342    927.762932     -0.211580
PJ03 -19634.717187  23642.099617 -24287.632603     -2.305311
PR01   7574.235761 -10258.917754 -22082.155307      8.945493
PR02 -13548.711413 -10072.274973 -19049.678809    519.018151
PR03 -24766.637392  -3913.006486  -4486.525919     57.033538
PR04 -21960.298604   4106.105766  12337.757610    142.588548
PR05  -7115.704368   9940.300490  22401.311660     93.244321
PR07  24972.605672   3670.215579   3886.686974     35.377059
PR08  21926.225326  -4237.338333 -12286.613891    -65.255208
PR09   2144.073928  15209.406108 -20371.060360     56.240353
PR11  16640.065517 -15525.530935 -11495.326099     38.427652
PR12  10714.306261 -22076.342333   7020.283437     18.545894
PR13   -970.035630 -15934.442940  19879.696486    -22.614031
PR14 -13134.127108    652.271913  21871.844510     25.598598
PR15 -16849.814282  15874.543311  10736.280412     95.963322
PR17 -14474.498940 -12306.435066 -17038.244830    528.004572
PR18  -9472.162759   4388.508873 -23266.043964    117.603762
PR19   -850.013784  18021.389372 -18039.606146   -189.815832
PR20  10349.011132  23338.253665    383.855857    -71.010804
PR21  14204.685755  11023.097992  18076.400451   -303.063269
PR22   9114.667955  -5016.310091  23267.496746   -184.567974
PR24 -11208.673824 -22894.862973  -1065.825389     94.813402
EOF
